{"type": "FeatureCollection", "features": [ {"type": "Feature", "properties": {"norad_id": 40701, "name": "GAOFEN-8", "group": "resource", "lat": -26.772575285109713, "lon": 174.2038635914305, "alt_km": 462.5538257865737, "timestamp": "2025-12-17T21:39:45.365910+00:00", "meta": {"OBJECT_NAME": "GAOFEN-8", "OBJECT_ID": "2015-030A", "EPOCH": "2025-12-17T15:32:13.382304", "MEAN_MOTION": 15.38714142, "ECCENTRICITY": 0.00118543, "INCLINATION": 97.69, "RA_OF_ASC_NODE": 170.0271, "ARG_OF_PERICENTER": 121.731, "MEAN_ANOMALY": 238.5092, "EPHEMERIS_TYPE": 0, "CLASSIFICATION_TYPE": "U", "NORAD_CAT_ID": 40701, "ELEMENT_SET_NO": 999, "REV_AT_EPOCH": 58346, "BSTAR": 0.00043355612, "MEAN_MOTION_DOT": 0.00016553, "MEAN_MOTION_DDOT": 0}, "tle": {"line1": "1 40701U 15030A   25351.64737711  .00016553  00000+0  43356-3 0  9996", "line2": "2 40701  97.6900 170.0271 0011854 121.7310 238.5092 15.38714142583468"}}, "geometry": {"type": "Point", "coordinates": [174.2038635914305, -26.772575285109713]}}, {"type": "Feature", "properties": {"norad_id": 40718, "name": "CARBONITE 1 (CBNT-1)", "group": "resource", "lat": -51.89170291756714, "lon": -177.42757958393523, "alt_km": 635.8052137797858, "timestamp": "2025-12-17T21:39:45.365919+00:00", "meta": {"OBJECT_NAME": "CARBONITE 1 (CBNT-1)", "OBJECT_ID": "2015-032D", "EPOCH": "2025-12-17T13:48:06.827328", "MEAN_MOTION": 14.82765159, "ECCENTRICITY": 0.00147223, "INCLINATION": 97.6398, "RA_OF_ASC_NODE": 172.4057, "ARG_OF_PERICENTER": 165.637, "MEAN_ANOMALY": 194.5266, "EPHEMERIS_TYPE": 0, "CLASSIFICATION_TYPE": "U", "NORAD_CAT_ID": 40718, "ELEMENT_SET_NO": 999, "REV_AT_EPOCH": 56242, "BSTAR": 0.00015133662, "MEAN_MOTION_DOT": 1.175e-05, "MEAN_MOTION_DDOT": 0}, "tle": {"line1": "1 40718U 15032D   25351.57507902  .00001175  00000+0  15134-3 0  9992", "line2": "2 40718  97.6398 172.4057 0014722 165.6370 194.5266 14.82765159562424"}}, "geometry": {"type": "Point", "coordinates": [-177.42757958393523, -51.89170291756714]}}, {"type": "Feature", "properties": {"norad_id": 40878, "name": "YAOGAN-27", "group": "resource", "lat": 27.090961193579762, "lon": 166.52038348436375, "alt_km": 1201.5661964855735, "timestamp": "2025-12-17T21:39:45.365928+00:00", "meta": {"OBJECT_NAME": "YAOGAN-27", "OBJECT_ID": "2015-040A", "EPOCH": "2025-12-17T15:25:00.079392", "MEAN_MOTION": 13.1606167, "ECCENTRICITY": 0.0007597, "INCLINATION": 100.1007, "RA_OF_ASC_NODE": 341.0407, "ARG_OF_PERICENTER": 274.9746, "MEAN_ANOMALY": 85.0501, "EPHEMERIS_TYPE": 0, "CLASSIFICATION_TYPE": "U", "NORAD_CAT_ID": 40878, "ELEMENT_SET_NO": 999, "REV_AT_EPOCH": 49378, "BSTAR": 0.0010619184, "MEAN_MOTION_DOT": 3.61e-06, "MEAN_MOTION_DDOT": 0}, "tle": {"line1": "1 40878U 15040A   25351.64236203  .00000361  00000+0  10619-2 0  9997", "line2": "2 40878 100.1007 341.0407 0007597 274.9746  85.0501 13.16061670493785"}}, "geometry": {"type": "Point", "coordinates": [166.52038348436375, 27.090961193579762]}}, {"type": "Feature", "properties": {"norad_id": 40894, "name": "GAOFEN-9 01", "group": "resource", "lat": -41.651975446765206, "lon": -156.2344914352343, "alt_km": 646.1357844907425, "timestamp": "2025-12-17T21:39:45.365937+00:00", "meta": {"OBJECT_NAME": "GAOFEN-9 01", "OBJECT_ID": "2015-047A", "EPOCH": "2025-12-17T15:48:14.786208", "MEAN_MOTION": 14.82434473, "ECCENTRICITY": 0.0028005, "INCLINATION": 97.6537, "RA_OF_ASC_NODE": 30.4015, "ARG_OF_PERICENTER": 18.5712, "MEAN_ANOMALY": 341.6517, "EPHEMERIS_TYPE": 0, "CLASSIFICATION_TYPE": "U", "NORAD_CAT_ID": 40894, "ELEMENT_SET_NO": 999, "REV_AT_EPOCH": 55329, "BSTAR": 0.00012455389, "MEAN_MOTION_DOT": 9.54e-06, "MEAN_MOTION_DDOT": 0}, "tle": {"line1": "1 40894U 15047A   25351.65850447  .00000954  00000+0  12455-3 0  9994", "line2": "2 40894  97.6537  30.4015 0028005  18.5712 341.6517 14.82434473553297"}}, "geometry": {"type": "Point", "coordinates": [-156.2344914352343, -41.651975446765206]}}, {"type": "Feature", "properties": {"norad_id": 41026, "name": "YAOGAN-28", "group": "resource", "lat": 70.79653203471054, "lon": 108.01526714130507, "alt_km": 478.7781821518138, "timestamp": "2025-12-17T21:39:45.365946+00:00", "meta": {"OBJECT_NAME": "YAOGAN-28", "OBJECT_ID": "2015-064A", "EPOCH": "2025-12-17T15:02:45.092256", "MEAN_MOTION": 15.24433527, "ECCENTRICITY": 0.00125676, "INCLINATION": 97.2804, "RA_OF_ASC_NODE": 129.2811, "ARG_OF_PERICENTER": 110.4331, "MEAN_ANOMALY": 249.8257, "EPHEMERIS_TYPE": 0, "CLASSIFICATION_TYPE": "U", "NORAD_CAT_ID": 41026, "ELEMENT_SET_NO": 999, "REV_AT_EPOCH": 56299, "BSTAR": 0.00026399241, "MEAN_MOTION_DOT": 6.422e-05, "MEAN_MOTION_DDOT": 0}, "tle": {"line1": "1 41026U 15064A   25351.62691079  .00006422  00000+0  26399-3 0  9990", "line2": "2 41026  97.2804 129.2811 0012567 110.4331 249.8257 15.24433527562997"}}, "geometry": {"type": "Point", "coordinates": [108.01526714130507, 70.79653203471054]}}, {"type": "Feature", "properties": {"norad_id": 41038, "name": "YAOGAN-29", "group": "resource", "lat": 60.34094575584648, "lon": -150.5699174563316, "alt_km": 614.3526537623065, "timestamp": "2025-12-17T21:39:45.365955+00:00", "meta": {"OBJECT_NAME": "YAOGAN-29", "OBJECT_ID": "2015-069A", "EPOCH": "2025-12-17T14:39:06.581376", "MEAN_MOTION": 14.82886131, "ECCENTRICITY": 2.707e-05, "INCLINATION": 98.0219, "RA_OF_ASC_NODE": 14.7982, "ARG_OF_PERICENTER": 202.1311, "MEAN_ANOMALY": 157.9891, "EPHEMERIS_TYPE": 0, "CLASSIFICATION_TYPE": "U", "NORAD_CAT_ID": 41038, "ELEMENT_SET_NO": 999, "REV_AT_EPOCH": 54371, "BSTAR": -2.551702e-06, "MEAN_MOTION_DOT": -7.5e-07, "MEAN_MOTION_DDOT": 0}, "tle": {"line1": "1 41038U 15069A   25351.61049284 -.00000075  00000+0 -25517-5 0  9995", "line2": "2 41038  98.0219  14.7982 0000270 202.1311 157.9891 14.82886131543719"}}, "geometry": {"type": "Point", "coordinates": [-150.5699174563316, 60.34094575584648]}}, {"type": "Feature", "properties": {"norad_id": 41167, "name": "KENT RIDGE 1", "group": "resource", "lat": 14.964459872467174, "lon": -95.88224718952341, "alt_km": 498.1233811287084, "timestamp": "2025-12-17T21:39:45.365964+00:00", "meta": {"OBJECT_NAME": "KENT RIDGE 1", "OBJECT_ID": "2015-077B", "EPOCH": "2025-12-17T03:57:31.233312", "MEAN_MOTION": 15.21671932, "ECCENTRICITY": 0.00084828, "INCLINATION": 14.978, "RA_OF_ASC_NODE": 178.304, "ARG_OF_PERICENTER": 193.5455, "MEAN_ANOMALY": 166.4639, "EPHEMERIS_TYPE": 0, "CLASSIFICATION_TYPE": "U", "NORAD_CAT_ID": 41167, "ELEMENT_SET_NO": 999, "REV_AT_EPOCH": 55331, "BSTAR": 0.00014001964, "MEAN_MOTION_DOT": 4.017e-05, "MEAN_MOTION_DDOT": 0}, "tle": {"line1": "1 41167U 15077B   25351.16494483  .00004017  00000+0  14002-3 0  9995", "line2": "2 41167  14.9780 178.3040 0008482 193.5455 166.4639 15.21671932553316"}}, "geometry": {"type": "Point", "coordinates": [-95.88224718952341, 14.964459872467174]}}, {"type": "Feature", "properties": {"norad_id": 41194, "name": "GAOFEN-4", "group": "resource", "lat": 0.17854314023193799, "lon": 157.39148188135584, "alt_km": 35773.73011173627, "timestamp": "2025-12-17T21:39:45.365978+00:00", "meta": {"OBJECT_NAME": "GAOFEN-4", "OBJECT_ID": "2015-083A", "EPOCH": "2025-12-17T16:23:22.933248", "MEAN_MOTION": 1.00274135, "ECCENTRICITY": 0.0002937, "INCLINATION": 0.1826, "RA_OF_ASC_NODE": 81.7781, "ARG_OF_PERICENTER": 93.7551, "MEAN_ANOMALY": 262.5686, "EPHEMERIS_TYPE": 0, "CLASSIFICATION_TYPE": "U", "NORAD_CAT_ID": 41194, "ELEMENT_SET_NO": 999, "REV_AT_EPOCH": 3670, "BSTAR": 0, "MEAN_MOTION_DOT": -3.1e-06, "MEAN_MOTION_DDOT": 0}, "tle": {"line1": "1 41194U 15083A   25351.68290432 -.00000310  00000+0  00000+0 0  9999", "line2": "2 41194   0.1826  81.7781 0002937  93.7551 262.5686  1.00274135 36705"}}, "geometry": {"type": "Point", "coordinates": [157.39148188135584, 0.17854314023193799]}}, {"type": "Feature", "properties": {"norad_id": 41240, "name": "JASON-3", "group": "resource", "lat": 51.276243580834446, "lon": -66.70934488169617, "alt_km": 1310.0653337253116, "timestamp": "2025-12-17T21:39:45.365987+00:00", "meta": {"OBJECT_NAME": "JASON-3", "OBJECT_ID": "2016-002A", "EPOCH": "2025-12-17T15:26:31.385184", "MEAN_MOTION": 12.87626769, "ECCENTRICITY": 0.00071879, "INCLINATION": 66.0396, "RA_OF_ASC_NODE": 147.5146, "ARG_OF_PERICENTER": 271.0779, "MEAN_ANOMALY": 88.9417, "EPHEMERIS_TYPE": 0, "CLASSIFICATION_TYPE": "U", "NORAD_CAT_ID": 41240, "ELEMENT_SET_NO": 999, "REV_AT_EPOCH": 46387, "BSTAR": 4.9959434e-05, "MEAN_MOTION_DOT": -5e-07, "MEAN_MOTION_DDOT": 0}, "tle": {"line1": "1 41240U 16002A   25351.64341881 -.00000050  00000+0  49959-4 0  9996", "line2": "2 41240  66.0396 147.5146 0007187 271.0779  88.9417 12.87626769463876"}}, "geometry": {"type": "Point", "coordinates": [-66.70934488169617, 51.276243580834446]}}, {"type": "Feature", "properties": {"norad_id": 41335, "name": "SENTINEL-3A", "group": "resource", "lat": -35.45847384442446, "lon": -129.36721411828225, "alt_km": 809.2792936122778, "timestamp": "2025-12-17T21:39:45.365996+00:00", "meta": {"OBJECT_NAME": "SENTINEL-3A", "OBJECT_ID": "2016-011A", "EPOCH": "2025-12-17T13:55:18.098976", "MEAN_MOTION": 14.26732548, "ECCENTRICITY": 9.172e-05, "INCLINATION": 98.631, "RA_OF_ASC_NODE": 56.5248, "ARG_OF_PERICENTER": 92.6808, "MEAN_ANOMALY": 267.4478, "EPHEMERIS_TYPE": 0, "CLASSIFICATION_TYPE": "U", "NORAD_CAT_ID": 41335, "ELEMENT_SET_NO": 999, "REV_AT_EPOCH": 51216, "BSTAR": 6.2266799e-05, "MEAN_MOTION_DOT": 1.07e-06, "MEAN_MOTION_DDOT": 0}, "tle": {"line1": "1 41335U 16011A   25351.58007059  .00000107  00000+0  62267-4 0  9999", "line2": "2 41335  98.6310  56.5248 0000917  92.6808 267.4478 14.26732548512160"}}, "geometry": {"type": "Point", "coordinates": [-129.36721411828225, -35.45847384442446]}}]}